#aV2019 11 12  0  0  0.00000000     288 DD+AD WGS84 FIT  NGA
## 2079 172800.00000000   300.00000000 58799 0.0000000000000
+   32     1  2  3  4  5  6  7  8  9 10 11 12 13 14 15 16 17
+         18 19 20 21 22 23 24 25 26 27 28 29 30 31 32  0  0
+          0  0  0  0  0  0  0  0  0  0  0  0  0  0  0  0  0
+          0  0  0  0  0  0  0  0  0  0  0  0  0  0  0  0  0
+          0  0  0  0  0  0  0  0  0  0  0  0  0  0  0  0  0
++         2  2  2  2  2  2  2  2  2  2  2  2  2  2  2  2  2
++         2  2  2  2  2  2  2  2  2  2  2  2  2  2  2  0  0
++         0  0  0  0  0  0  0  0  0  0  0  0  0  0  0  0  0
++         0  0  0  0  0  0  0  0  0  0  0  0  0  0  0  0  0
++         0  0  0  0  0  0  0  0  0  0  0  0  0  0  0  0  0
%c cc cc ccc ccc cccc cccc cccc cccc ccccc ccccc ccccc ccccc
%c cc cc ccc ccc cccc cccc cccc cccc ccccc ccccc ccccc ccccc
%f  0.0000000  0.000000000  0.00000000000  0.000000000000000
%f  0.0000000  0.000000000  0.00000000000  0.000000000000000
%i    0    0    0    0      0      0      0      0         0
%i    0    0    0    0      0      0      0      0         0
/*      NGA, ST. LOUIS,MO.                                  
/*   EPHEMERIS COMPUTED FROM 2 DAYS OF DATA                 
/*   EPOCHA v5 SMOOTHER                                     
/*   G1762 IERS2010 SATAF SATAPC                            
*  2019 11 12  8 30  0.00000000
P  1  16488.769332   3905.966324  20333.112085   -194.563214                    
V  1   9424.802447  24393.561942 -11899.554783     -0.127215                    
P  2 -14371.598317 -21897.511011  -4142.682861   -345.118288                    
V  2   -166.417466  -6664.547630  31015.233055     -0.076847                    
P  3  19780.604552  -8414.658731  15482.431636    -35.468416                    
V  3 -10299.230898  17024.316880  22410.311126     -0.057175                    
P  4  17469.269637  -9661.895720 -17421.571610     -8.205808                    
V  4  21745.273776   5099.488793  18949.471232     -0.039524                    
P  5 -11072.055724 -11050.194264 -21586.146496     -3.357707                    
V  5  15992.138177 -21937.017223   3240.013244     -0.004581                    
P  6  -5025.260757 -24912.318096   7717.798617   -121.071174                    
V  6   5813.402914   8090.906501  30103.587301     -0.120256                    
P  7   9892.286315 -13539.275438 -20202.506547   -147.059955                    
V  7  11261.715748  23947.464401 -10859.513930     -0.081488                    
P  8  25695.348785   5708.882479  -4306.920657    -13.087695                    
V  8  -5687.213865   1701.072010 -31200.343003     -0.013152                    
P  9  20321.461644  -8498.597001 -14897.853323    -81.271542                    
V  9  18505.024740   4195.883048  22920.438372     -0.097666                    
P 10  -9656.618015  23051.265427   8714.820921   -131.377949                    
V 10  -8744.751613   7249.847263 -29295.157860     -0.148584                    
P 11  21332.081056   3298.843372  14769.682578   -450.528838                    
V 11  12846.055905  15601.266445 -21622.692828      0.111595                    
P 12 -18578.383319   2506.060651  18531.017014    184.372586                    
V 12  14691.230420 -19011.962480  17258.727121     -0.039579                    
P 13 -20336.949664 -13057.386793 -11219.689512    -33.320855                    
V 13  14127.295978   1330.704477 -27380.977685      0.022989                    
P 14   8623.893362  15901.367139  19835.739560    -50.955644                    
V 14 -24147.218168  -3823.595960  13609.734482      0.021479                    
P 15 -26306.324381  -3451.903945  -3856.015628   -273.235424                    
V 15   4583.465499  -3329.250080 -30258.125965      0.026919                    
P 16   7956.815183  13047.970809 -21862.050139    -92.356806                    
V 16 -18649.290100  19953.154282   5593.485363     -0.037304                    
P 17   3166.757717 -14559.625622  22409.023783    161.485508                    
V 17  26926.171110   4867.587230   -730.020931      0.069157                    
P 18  17807.747250  12015.653815  15176.350952     99.606788                    
V 18   6906.967292  19056.902789 -22360.874962      0.025760                    
P 19  -4853.927318 -15345.717103  20829.949144   -240.885619                    
V 19  26568.003589   5262.808736   9948.088116      0.052048                    
P 20 -14483.794394  22029.384019  -2286.367885    527.441845                    
V 20  -1982.331234  -4361.900172 -31039.141636      0.000944                    
P 21  -5683.988559  17703.036644 -18256.090212    -87.394124                    
V 21 -12643.852555 -21390.392536 -15924.029553      0.059965                    
P 22  17992.901316   -834.300079  19707.078134   -771.078904                    
V 22 -11970.827662  21666.266750  12079.088052     -0.026163                    
P 23  26040.797279  -1527.051000  -5646.080027   -156.015812                    
V 23   7214.772575   3716.465344  30023.451154      0.022484                    
P 24 -18003.301620  -5462.188953  18706.342467     -4.765546                    
V 24  -9270.831053 -22271.095736 -14932.062762     -0.005517                    
P 25 -19166.042918  16216.985525   8036.828869    -17.032841                    
V 25   4233.139868 -10038.371703  29817.732559     -0.004107                    
P 26    687.670693  20251.113777 -17084.531915     82.434745                    
V 26 -14242.213235  16599.187125  19316.461520      0.083906                    
P 27  18668.652308  12225.932058 -14750.216855   -117.320414                    
V 27 -18415.269335   -749.717138 -23812.416753     -0.119358                    
P 28  10735.839205 -22288.983704  10427.141548    755.437827                    
V 28   9523.377463  -7951.905653 -28359.354927     -0.016804                    
P 29 -21720.030409   5518.764966 -14305.673401     46.429566                    
V 29 -17456.485284  -4857.187127  24657.401245     -0.100129                    
P 30   2148.276108 -22508.539599 -13747.571450    -82.073444                    
V 30   8912.732389  15475.909331 -24084.315723     -0.083970                    
P 31   5881.420262  25088.249752   5324.310625     -2.645995                    
V 31  -5469.443503  -5232.114147  31039.930395     -0.025424                    
P 32  -2210.613053  15175.442669  21743.515376    122.339191                    
V 32 -27294.471256  -3217.737916   -658.555787      0.122071                    
EOF
